COSMOS 2251 DEB         
1 34468U 93036TM  17345.92888814  .00000135  00000-0  47445-4 0  9991
2 34468  74.0133 159.0497 0082453 288.2958  70.9240 14.42576167462786
